start=new Date('2021-11-16T00:00:00.000Z').valueOf();
sats=[{"ARG_OF_PERICENTER":"71.1157","RA_OF_ASC_NODE":"76.9581","MEAN_ANOMALY":"288.9960","SITE":"AFETR","MEAN_ELEMENT_THEORY":"SGP4","COUNTRY_CODE":"US","APOAPSIS":"548.050","RCS_SIZE":"LARGE","MEAN_MOTION_DDOT":"0.0000000000000","FILE":"3215928","SEMIMAJOR_AXIS":"6925.368","MEAN_MOTION_DOT":"0.00000857","PERIOD":"95.593","CLASSIFICATION_TYPE":"U","NORAD_CAT_ID":"44752","MEAN_MOTION":"15.06393751","REF_FRAME":"TEME","PERIAPSIS":"546.416","OBJECT_NAME":"STARLINK-1047","EPHEMERIS_TYPE":"0","GP_ID":"189835686","ELEMENT_SET_NO":"999","ECCENTRICITY":"0.00011800","DECAY_DATE":null,"INCLINATION":"53.0545","EPOCH":"2021-11-15T17:05:43.297152","OBJECT_TYPE":"PAYLOAD","BSTAR":"0.00007641300000","TLE_LINE2":"2 44752  53.0545  76.9581 0001180  71.1157 288.9960 15.06393751111087","TLE_LINE1":"1 44752U 19074AR  21319.71230668  .00000857  00000-0  76413-4 0  9997","REV_AT_EPOCH":"11108","CENTER_NAME":"EARTH","LAUNCH_DATE":"2019-11-11","TIME_SYSTEM":"UTC","OBJECT_ID":"2019-074AR"},{"COUNTRY_CODE":"US","MEAN_ANOMALY":"275.2999","SITE":"AFETR","MEAN_ELEMENT_THEORY":"SGP4","RA_OF_ASC_NODE":"57.5506","ARG_OF_PERICENTER":"84.8140","APOAPSIS":"548.136","RCS_SIZE":"LARGE","FILE":"3215681","MEAN_MOTION_DDOT":"0.0000000000000","CLASSIFICATION_TYPE":"U","PERIOD":"95.592","NORAD_CAT_ID":"44753","MEAN_MOTION_DOT":"-0.00000200","SEMIMAJOR_AXIS":"6925.360","MEAN_MOTION":"15.06396131","REF_FRAME":"TEME","EPHEMERIS_TYPE":"0","OBJECT_NAME":"STARLINK-1048","PERIAPSIS":"546.315","GP_ID":"189806644","DECAY_DATE":null,"ECCENTRICITY":"0.00013150","ELEMENT_SET_NO":"999","OBJECT_TYPE":"PAYLOAD","BSTAR":"0.00000543830000","INCLINATION":"53.0561","EPOCH":"2021-11-15T14:02:35.945664","TLE_LINE1":"1 44753U 19074AS  21319.58513826 -.00000200  00000-0  54383-5 0  9999","TLE_LINE2":"2 44753  53.0561  57.5506 0001315  84.8140 275.2999 15.06396131111346","CENTER_NAME":"EARTH","REV_AT_EPOCH":"11134","LAUNCH_DATE":"2019-11-11","OBJECT_ID":"2019-074AS","TIME_SYSTEM":"UTC"},{"REF_FRAME":"TEME","PERIAPSIS":"546.363","OBJECT_NAME":"STARLINK-1049","EPHEMERIS_TYPE":"0","SEMIMAJOR_AXIS":"6925.356","CLASSIFICATION_TYPE":"U","PERIOD":"95.592","NORAD_CAT_ID":"44754","MEAN_MOTION_DOT":"-0.00000414","MEAN_MOTION":"15.06397648","RCS_SIZE":"LARGE","FILE":"3215928","MEAN_MOTION_DDOT":"0.0000000000000","RA_OF_ASC_NODE":"56.6320","ARG_OF_PERICENTER":"81.1743","COUNTRY_CODE":"US","MEAN_ELEMENT_THEORY":"SGP4","SITE":"AFETR","MEAN_ANOMALY":"278.9386","APOAPSIS":"548.079","LAUNCH_DATE":"2019-11-11","TIME_SYSTEM":"UTC","OBJECT_ID":"2019-074AT","TLE_LINE1":"1 44754U 19074AT  21319.78786735 -.00000414  00000-0 -88830-5 0  9995","TLE_LINE2":"2 44754  53.0563  56.6320 0001239  81.1743 278.9386 15.06397648111374","REV_AT_EPOCH":"11137","CENTER_NAME":"EARTH","ELEMENT_SET_NO":"999","DECAY_DATE":null,"ECCENTRICITY":"0.00012390","BSTAR":"-0.00000888300000","OBJECT_TYPE":"PAYLOAD","EPOCH":"2021-11-15T18:54:31.739040","INCLINATION":"53.0563","GP_ID":"189836188"},{"GP_ID":"189836439","DECAY_DATE":null,"ECCENTRICITY":"0.00013060","ELEMENT_SET_NO":"999","OBJECT_TYPE":"PAYLOAD","BSTAR":"-0.00002303600000","EPOCH":"2021-11-15T18:31:56.514432","INCLINATION":"53.0528","TLE_LINE1":"1 44755U 19074AU  21319.77218188 -.00000624  00000-0 -23036-4 0  9996","TLE_LINE2":"2 44755  53.0528  96.7285 0001306  86.1513 273.9626 15.06390328111365","CENTER_NAME":"EARTH","REV_AT_EPOCH":"11136","LAUNCH_DATE":"2019-11-11","TIME_SYSTEM":"UTC","OBJECT_ID":"2019-074AU","COUNTRY_CODE":"US","SITE":"AFETR","MEAN_ANOMALY":"273.9626","MEAN_ELEMENT_THEORY":"SGP4","RA_OF_ASC_NODE":"96.7285","ARG_OF_PERICENTER":"86.1513","APOAPSIS":"548.148","RCS_SIZE":"LARGE","FILE":"3215928","MEAN_MOTION_DDOT":"0.0000000000000","PERIOD":"95.593","NORAD_CAT_ID":"44755","CLASSIFICATION_TYPE":"U","MEAN_MOTION_DOT":"-0.00000624","SEMIMAJOR_AXIS":"6925.378","MEAN_MOTION":"15.06390328","REF_FRAME":"TEME","EPHEMERIS_TYPE":"0","OBJECT_NAME":"STARLINK-1050","PERIAPSIS":"546.339"},{"EPHEMERIS_TYPE":"0","OBJECT_NAME":"STARLINK-1051","PERIAPSIS":"301.594","REF_FRAME":"TEME","MEAN_MOTION":"15.89799430","MEAN_MOTION_DOT":"0.00078608","PERIOD":"90.577","CLASSIFICATION_TYPE":"U","NORAD_CAT_ID":"44756","SEMIMAJOR_AXIS":"6680.982","MEAN_MOTION_DDOT":"0.0000000000000","FILE":"3215681","RCS_SIZE":"LARGE","APOAPSIS":"304.099","MEAN_ANOMALY":"282.7712","SITE":"AFETR","MEAN_ELEMENT_THEORY":"SGP4","COUNTRY_CODE":"US","ARG_OF_PERICENTER":"77.3523","RA_OF_ASC_NODE":"341.6283","OBJECT_ID":"2019-074AV","TIME_SYSTEM":"UTC","LAUNCH_DATE":"2019-11-11","CENTER_NAME":"EARTH","REV_AT_EPOCH":"11240","TLE_LINE2":"2 44756  53.0506 341.6283 0001875  77.3523 282.7712 15.89799430112404","TLE_LINE1":"1 44756U 19074AV  21319.55781571  .00078608  00000-0  25906-3 0  9996","INCLINATION":"53.0506","EPOCH":"2021-11-15T13:23:15.277344","BSTAR":"0.00025906000000","OBJECT_TYPE":"PAYLOAD","ECCENTRICITY":"0.00018750","DECAY_DATE":null,"ELEMENT_SET_NO":"999","GP_ID":"189808397"},{"LAUNCH_DATE":"2019-11-11","OBJECT_ID":"2019-074AW","TIME_SYSTEM":"UTC","TLE_LINE2":"2 44757  53.0567  76.9063 0001233  73.7648 286.3476 15.06390786111082","TLE_LINE1":"1 44757U 19074AW  21319.72336173  .00000924  00000-0  80944-4 0  9990","REV_AT_EPOCH":"11108","CENTER_NAME":"EARTH","ELEMENT_SET_NO":"999","ECCENTRICITY":"0.00012330","DECAY_DATE":null,"INCLINATION":"53.0567","EPOCH":"2021-11-15T17:21:38.453472","BSTAR":"0.00008094400000","OBJECT_TYPE":"PAYLOAD","GP_ID":"189835437","REF_FRAME":"TEME","PERIAPSIS":"546.388","OBJECT_NAME":"STARLINK-1052","EPHEMERIS_TYPE":"0","SEMIMAJOR_AXIS":"6925.377","MEAN_MOTION_DOT":"0.00000924","PERIOD":"95.593","NORAD_CAT_ID":"44757","CLASSIFICATION_TYPE":"U","MEAN_MOTION":"15.06390786","RCS_SIZE":"LARGE","MEAN_MOTION_DDOT":"0.0000000000000","FILE":"3215928","ARG_OF_PERICENTER":"73.7648","RA_OF_ASC_NODE":"76.9063","MEAN_ANOMALY":"286.3476","SITE":"AFETR","MEAN_ELEMENT_THEORY":"SGP4","COUNTRY_CODE":"US","APOAPSIS":"548.096"},{"OBJECT_ID":"2019-074AX","TIME_SYSTEM":"UTC","LAUNCH_DATE":"2019-11-11","REV_AT_EPOCH":"11080","CENTER_NAME":"EARTH","TLE_LINE1":"1 44758U 19074AX  21319.66529267  .00001097  00000-0  92495-4 0  9998","TLE_LINE2":"2 44758  53.0560  97.1663 0001076  91.2129 268.8983 15.06400480110801","BSTAR":"0.00009249500000","OBJECT_TYPE":"PAYLOAD","EPOCH":"2021-11-15T15:58:01.286688","INCLINATION":"53.0560","ELEMENT_SET_NO":"999","DECAY_DATE":null,"ECCENTRICITY":"0.00010760","GP_ID":"189836688","PERIAPSIS":"546.467","OBJECT_NAME":"STARLINK-1053","EPHEMERIS_TYPE":"0","REF_FRAME":"TEME","MEAN_MOTION":"15.06400480","SEMIMAJOR_AXIS":"6925.347","PERIOD":"95.592","CLASSIFICATION_TYPE":"U","NORAD_CAT_ID":"44758","MEAN_MOTION_DOT":"0.00001097","FILE":"3215928","MEAN_MOTION_DDOT":"0.0000000000000","RCS_SIZE":"LARGE","APOAPSIS":"547.957","RA_OF_ASC_NODE":"97.1663","ARG_OF_PERICENTER":"91.2129","COUNTRY_CODE":"US","MEAN_ELEMENT_THEORY":"SGP4","SITE":"AFETR","MEAN_ANOMALY":"268.8983"},{"ELEMENT_SET_NO":"999","ECCENTRICITY":"0.00013660","DECAY_DATE":null,"INCLINATION":"53.0550","EPOCH":"2021-11-15T20:30:04.162176","BSTAR":"-0.00004646300000","OBJECT_TYPE":"PAYLOAD","GP_ID":"189836939","LAUNCH_DATE":"2019-11-11","TIME_SYSTEM":"UTC","OBJECT_ID":"2019-074AY","TLE_LINE2":"2 44759  53.0550  96.3386 0001366  86.7813 273.3332 15.06395457108471","TLE_LINE1":"1 44759U 19074AY  21319.85421484 -.00000973  00000-0 -46463-4 0  9990","REV_AT_EPOCH":"10847","CENTER_NAME":"EARTH","RCS_SIZE":"LARGE","MEAN_MOTION_DDOT":"0.0000000000000","FILE":"3215928","ARG_OF_PERICENTER":"86.7813","RA_OF_ASC_NODE":"96.3386","MEAN_ANOMALY":"273.3332","SITE":"AFETR","MEAN_ELEMENT_THEORY":"SGP4","COUNTRY_CODE":"US","APOAPSIS":"548.173","REF_FRAME":"TEME","PERIAPSIS":"546.281","OBJECT_NAME":"STARLINK-1054","EPHEMERIS_TYPE":"0","SEMIMAJOR_AXIS":"6925.362","MEAN_MOTION_DOT":"-0.00000973","PERIOD":"95.592","NORAD_CAT_ID":"44759","CLASSIFICATION_TYPE":"U","MEAN_MOTION":"15.06395457"},{"MEAN_MOTION":"15.06396954","MEAN_MOTION_DOT":"0.00000982","PERIOD":"95.592","NORAD_CAT_ID":"44760","CLASSIFICATION_TYPE":"U","SEMIMAJOR_AXIS":"6925.358","EPHEMERIS_TYPE":"0","OBJECT_NAME":"STARLINK-1055","PERIAPSIS":"546.212","REF_FRAME":"TEME","APOAPSIS":"548.234","SITE":"AFETR","MEAN_ANOMALY":"273.3504","MEAN_ELEMENT_THEORY":"SGP4","COUNTRY_CODE":"US","ARG_OF_PERICENTER":"86.7652","RA_OF_ASC_NODE":"96.6946","MEAN_MOTION_DDOT":"0.0000000000000","FILE":"3215928","RCS_SIZE":"LARGE","CENTER_NAME":"EARTH","REV_AT_EPOCH":"11082","TLE_LINE2":"2 44760  53.0530  96.6946 0001460  86.7652 273.3504 15.06396954110828","TLE_LINE1":"1 44760U 19074AZ  21319.77312294  .00000982  00000-0  84830-4 0  9999","OBJECT_ID":"2019-074AZ","TIME_SYSTEM":"UTC","LAUNCH_DATE":"2019-11-11","GP_ID":"189835687","INCLINATION":"53.0530","EPOCH":"2021-11-15T18:33:17.822016","BSTAR":"0.00008483000000","OBJECT_TYPE":"PAYLOAD","ECCENTRICITY":"0.00014600","DECAY_DATE":null,"ELEMENT_SET_NO":"999"},{"LAUNCH_DATE":"2019-11-11","TIME_SYSTEM":"UTC","OBJECT_ID":"2019-074BA","TLE_LINE1":"1 44761U 19074BA  21319.65148976 -.00000593  00000-0 -20893-4 0  9990","TLE_LINE2":"2 44761  53.0543  97.2412 0001550  94.0518 266.0648 15.06400425110806","REV_AT_EPOCH":"11080","CENTER_NAME":"EARTH","ELEMENT_SET_NO":"999","DECAY_DATE":null,"ECCENTRICITY":"0.00015500","OBJECT_TYPE":"PAYLOAD","BSTAR":"-0.00002089300000","INCLINATION":"53.0543","EPOCH":"2021-11-15T15:38:08.715264","GP_ID":"189835937","REF_FRAME":"TEME","PERIAPSIS":"546.139","OBJECT_NAME":"STARLINK-1056","EPHEMERIS_TYPE":"0","SEMIMAJOR_AXIS":"6925.347","PERIOD":"95.592","NORAD_CAT_ID":"44761","CLASSIFICATION_TYPE":"U","MEAN_MOTION_DOT":"-0.00000593","MEAN_MOTION":"15.06400425","RCS_SIZE":"LARGE","FILE":"3215928","MEAN_MOTION_DDOT":"0.0000000000000","RA_OF_ASC_NODE":"97.2412","ARG_OF_PERICENTER":"94.0518","COUNTRY_CODE":"US","SITE":"AFETR","MEAN_ELEMENT_THEORY":"SGP4","MEAN_ANOMALY":"266.0648","APOAPSIS":"548.286"}];
